[{"OBJECT_NAME":"STARLINK-5873","OBJECT_ID":"2023-064AU","EPOCH":"2026-03-09T12:31:33.784320","MEAN_MOTION":14.98330535,"ECCENTRICITY":0.00031595,"INCLINATION":69.9993,"RA_OF_ASC_NODE":105.0315,"ARG_OF_PERICENTER":267.7061,"MEAN_ANOMALY":92.3736,"EPHEMERIS_TYPE":0,"CLASSIFICATION_TYPE":"U","NORAD_CAT_ID":56490,"ELEMENT_SET_NO":999,"REV_AT_EPOCH":15620,"BSTAR":-2.2748139e-5,"MEAN_MOTION_DOT":-3.64e-6,"MEAN_MOTION_DDOT":0},{"OBJECT_NAME":"CZ-6A DEB","OBJECT_ID":"2024-140XM","EPOCH":"2026-03-08T13:47:27.015936","MEAN_MOTION":14.68389112,"ECCENTRICITY":0.01435049,"INCLINATION":89.0591,"RA_OF_ASC_NODE":285.7653,"ARG_OF_PERICENTER":157.7449,"MEAN_ANOMALY":203.0084,"EPHEMERIS_TYPE":0,"CLASSIFICATION_TYPE":"U","NORAD_CAT_ID":61396,"ELEMENT_SET_NO":999,"REV_AT_EPOCH":7982,"BSTAR":0.00092985645,"MEAN_MOTION_DOT":6.31e-5,"MEAN_MOTION_DDOT":0}]
